1 27424U 02022A   12050.43462761  .00000469  00000-0  11419-3 0  2177
2 27424 098.2223 352.6216 0001326 085.2716 274.8605 14.57103874521070